STARLINK-36390          
1 67886U 26035H   26069.50002314 -.01210819  00000+0 -56606-2 0  9997
2 67886  97.2716   1.8887 0001494  93.7294  66.2466 15.85631699  3931
STARLINK-36368          
1 67887U 26035J   26069.50002314 -.01212622  00000+0 -56789-2 0  9994
2 67887  97.2713   1.8906 0001450  94.2923  70.3601 15.85599916  3884
STARLINK-36801          
1 67888U 26035K   26069.50002314 -.01221100  00000+0 -57287-2 0  9990
2 67888  97.2707   1.8922 0001511 100.4121  68.8509 15.85580224  3885
STARLINK-36372          
1 67889U 26035L   26069.50002314 -.01291322  00000+0 -60998-2 0  9997
2 67889  97.2696   1.8953 0001590 100.7941  77.5339 15.85584612  3880
STARLINK-36363          
1 67890U 26035M   26069.50002314 -.01262332  00000+0 -59557-2 0  9997
2 67890  97.2705   1.8943 0001601 100.3028  73.8110 15.85548505  3884
STARLINK-36816          
1 67891U 26035N   26069.50002314 -.01514461  00000+0 -74582-2 0  9996
2 67891  97.2668   1.9189 0001551  96.7736 143.4238 15.84714362  3783
STARLINK-36813          
1 67892U 26035P   26069.50002314 -.01378467  00000+0 -67514-2 0  9998
2 67892  97.2665   1.9063 0001542 100.7641 111.4359 15.85024065  3888
STARLINK-36803          
1 67893U 26035Q   26069.50002314 -.01324405  00000+0 -63030-2 0  9991
2 67893  97.2694   1.8972 0001475  96.6817  86.6556 15.85501863  3880
STARLINK-36846          
1 67894U 26035R   26069.50002314 -.01352637  00000+0 -65222-2 0  9995
2 67894  97.2686   1.9010 0001618 101.8317  91.5425 15.85290126  3886
STARLINK-36866          
1 67895U 26035S   26069.50002314 -.01354625  00000+0 -65554-2 0  9993
2 67895  97.2684   1.9030 0001492  90.0973 107.9876 15.85221561  3883
STARLINK-36877          
1 67896U 26035T   26069.50002314 -.01341798  00000+0 -64340-2 0  9993
2 67896  97.2689   1.8990 0001581  94.2159  94.2461 15.85382572  3882
STARLINK-36870          
1 67897U 26035U   26069.50002314 -.01365211  00000+0 -66476-2 0  9992
2 67897  97.2678   1.9043 0001572 104.5158  98.5138 15.85115518  3887
