CCSDS_OMM_VERS = 2.0
CREATION_DATE  = 
ORIGINATOR     = 

OBJECT_NAME    = STARLINK-36390
OBJECT_ID      = 2026-035H
CENTER_NAME    = EARTH
REF_FRAME      = TEME
TIME_SYSTEM    = UTC
MEAN_ELEMENT_THEORY = SGP/SGP4

EPOCH          = 2026-03-10T12:00:01.999296
MEAN_MOTION    = 15.85631699
ECCENTRICITY   = .0001494
INCLINATION    = 97.2716
RA_OF_ASC_NODE = 1.8887
ARG_OF_PERICENTER = 93.7294
MEAN_ANOMALY   = 66.2466

EPHEMERIS_TYPE = 0
CLASSIFICATION_TYPE = U
NORAD_CAT_ID   = 67886
ELEMENT_SET_NO = 999
REV_AT_EPOCH   = 393
BSTAR          = -.56606E-2
MEAN_MOTION_DOT = -.1210819E-1
MEAN_MOTION_DDOT = 0

CCSDS_OMM_VERS = 2.0
CREATION_DATE  = 
ORIGINATOR     = 

OBJECT_NAME    = STARLINK-36368
OBJECT_ID      = 2026-035J
CENTER_NAME    = EARTH
REF_FRAME      = TEME
TIME_SYSTEM    = UTC
MEAN_ELEMENT_THEORY = SGP/SGP4

EPOCH          = 2026-03-10T12:00:01.999296
MEAN_MOTION    = 15.85599916
ECCENTRICITY   = .000145
INCLINATION    = 97.2713
RA_OF_ASC_NODE = 1.8906
ARG_OF_PERICENTER = 94.2923
MEAN_ANOMALY   = 70.3601

EPHEMERIS_TYPE = 0
CLASSIFICATION_TYPE = U
NORAD_CAT_ID   = 67887
ELEMENT_SET_NO = 999
REV_AT_EPOCH   = 388
BSTAR          = -.56789E-2
MEAN_MOTION_DOT = -.1212622E-1
MEAN_MOTION_DDOT = 0

CCSDS_OMM_VERS = 2.0
CREATION_DATE  = 
ORIGINATOR     = 

OBJECT_NAME    = STARLINK-36801
OBJECT_ID      = 2026-035K
CENTER_NAME    = EARTH
REF_FRAME      = TEME
TIME_SYSTEM    = UTC
MEAN_ELEMENT_THEORY = SGP/SGP4

EPOCH          = 2026-03-10T12:00:01.999296
MEAN_MOTION    = 15.85580224
ECCENTRICITY   = .0001511
INCLINATION    = 97.2707
RA_OF_ASC_NODE = 1.8922
ARG_OF_PERICENTER = 100.4121
MEAN_ANOMALY   = 68.8509

EPHEMERIS_TYPE = 0
CLASSIFICATION_TYPE = U
NORAD_CAT_ID   = 67888
ELEMENT_SET_NO = 999
REV_AT_EPOCH   = 388
BSTAR          = -.57287E-2
MEAN_MOTION_DOT = -.12211E-1
MEAN_MOTION_DDOT = 0

CCSDS_OMM_VERS = 2.0
CREATION_DATE  = 
ORIGINATOR     = 

OBJECT_NAME    = STARLINK-36372
OBJECT_ID      = 2026-035L
CENTER_NAME    = EARTH
REF_FRAME      = TEME
TIME_SYSTEM    = UTC
MEAN_ELEMENT_THEORY = SGP/SGP4

EPOCH          = 2026-03-10T12:00:01.999296
MEAN_MOTION    = 15.85584612
ECCENTRICITY   = .000159
INCLINATION    = 97.2696
RA_OF_ASC_NODE = 1.8953
ARG_OF_PERICENTER = 100.7941
MEAN_ANOMALY   = 77.5339

EPHEMERIS_TYPE = 0
CLASSIFICATION_TYPE = U
NORAD_CAT_ID   = 67889
ELEMENT_SET_NO = 999
REV_AT_EPOCH   = 388
BSTAR          = -.60998E-2
MEAN_MOTION_DOT = -.1291322E-1
MEAN_MOTION_DDOT = 0

CCSDS_OMM_VERS = 2.0
CREATION_DATE  = 
ORIGINATOR     = 

OBJECT_NAME    = STARLINK-36363
OBJECT_ID      = 2026-035M
CENTER_NAME    = EARTH
REF_FRAME      = TEME
TIME_SYSTEM    = UTC
MEAN_ELEMENT_THEORY = SGP/SGP4

EPOCH          = 2026-03-10T12:00:01.999296
MEAN_MOTION    = 15.85548505
ECCENTRICITY   = .0001601
INCLINATION    = 97.2705
RA_OF_ASC_NODE = 1.8943
ARG_OF_PERICENTER = 100.3028
MEAN_ANOMALY   = 73.8110

EPHEMERIS_TYPE = 0
CLASSIFICATION_TYPE = U
NORAD_CAT_ID   = 67890
ELEMENT_SET_NO = 999
REV_AT_EPOCH   = 388
BSTAR          = -.59557E-2
MEAN_MOTION_DOT = -.1262332E-1
MEAN_MOTION_DDOT = 0

CCSDS_OMM_VERS = 2.0
CREATION_DATE  = 
ORIGINATOR     = 

OBJECT_NAME    = STARLINK-36816
OBJECT_ID      = 2026-035N
CENTER_NAME    = EARTH
REF_FRAME      = TEME
TIME_SYSTEM    = UTC
MEAN_ELEMENT_THEORY = SGP/SGP4

EPOCH          = 2026-03-10T12:00:01.999296
MEAN_MOTION    = 15.84714362
ECCENTRICITY   = .0001551
INCLINATION    = 97.2668
RA_OF_ASC_NODE = 1.9189
ARG_OF_PERICENTER = 96.7736
MEAN_ANOMALY   = 143.4238

EPHEMERIS_TYPE = 0
CLASSIFICATION_TYPE = U
NORAD_CAT_ID   = 67891
ELEMENT_SET_NO = 999
REV_AT_EPOCH   = 378
BSTAR          = -.74582E-2
MEAN_MOTION_DOT = -.1514461E-1
MEAN_MOTION_DDOT = 0

CCSDS_OMM_VERS = 2.0
CREATION_DATE  = 
ORIGINATOR     = 

OBJECT_NAME    = STARLINK-36813
OBJECT_ID      = 2026-035P
CENTER_NAME    = EARTH
REF_FRAME      = TEME
TIME_SYSTEM    = UTC
MEAN_ELEMENT_THEORY = SGP/SGP4

EPOCH          = 2026-03-10T12:00:01.999296
MEAN_MOTION    = 15.85024065
ECCENTRICITY   = .0001542
INCLINATION    = 97.2665
RA_OF_ASC_NODE = 1.9063
ARG_OF_PERICENTER = 100.7641
MEAN_ANOMALY   = 111.4359

EPHEMERIS_TYPE = 0
CLASSIFICATION_TYPE = U
NORAD_CAT_ID   = 67892
ELEMENT_SET_NO = 999
REV_AT_EPOCH   = 388
BSTAR          = -.67514E-2
MEAN_MOTION_DOT = -.1378467E-1
MEAN_MOTION_DDOT = 0

CCSDS_OMM_VERS = 2.0
CREATION_DATE  = 
ORIGINATOR     = 

OBJECT_NAME    = STARLINK-36803
OBJECT_ID      = 2026-035Q
CENTER_NAME    = EARTH
REF_FRAME      = TEME
TIME_SYSTEM    = UTC
MEAN_ELEMENT_THEORY = SGP/SGP4

EPOCH          = 2026-03-10T12:00:01.999296
MEAN_MOTION    = 15.85501863
ECCENTRICITY   = .0001475
INCLINATION    = 97.2694
RA_OF_ASC_NODE = 1.8972
ARG_OF_PERICENTER = 96.6817
MEAN_ANOMALY   = 86.6556

EPHEMERIS_TYPE = 0
CLASSIFICATION_TYPE = U
NORAD_CAT_ID   = 67893
ELEMENT_SET_NO = 999
REV_AT_EPOCH   = 388
BSTAR          = -.6303E-2
MEAN_MOTION_DOT = -.1324405E-1
MEAN_MOTION_DDOT = 0

CCSDS_OMM_VERS = 2.0
CREATION_DATE  = 
ORIGINATOR     = 

OBJECT_NAME    = STARLINK-36846
OBJECT_ID      = 2026-035R
CENTER_NAME    = EARTH
REF_FRAME      = TEME
TIME_SYSTEM    = UTC
MEAN_ELEMENT_THEORY = SGP/SGP4

EPOCH          = 2026-03-10T12:00:01.999296
MEAN_MOTION    = 15.85290126
ECCENTRICITY   = .0001618
INCLINATION    = 97.2686
RA_OF_ASC_NODE = 1.9010
ARG_OF_PERICENTER = 101.8317
MEAN_ANOMALY   = 91.5425

EPHEMERIS_TYPE = 0
CLASSIFICATION_TYPE = U
NORAD_CAT_ID   = 67894
ELEMENT_SET_NO = 999
REV_AT_EPOCH   = 388
BSTAR          = -.65222E-2
MEAN_MOTION_DOT = -.1352637E-1
MEAN_MOTION_DDOT = 0

CCSDS_OMM_VERS = 2.0
CREATION_DATE  = 
ORIGINATOR     = 

OBJECT_NAME    = STARLINK-36866
OBJECT_ID      = 2026-035S
CENTER_NAME    = EARTH
REF_FRAME      = TEME
TIME_SYSTEM    = UTC
MEAN_ELEMENT_THEORY = SGP/SGP4

EPOCH          = 2026-03-10T12:00:01.999296
MEAN_MOTION    = 15.85221561
ECCENTRICITY   = .0001492
INCLINATION    = 97.2684
RA_OF_ASC_NODE = 1.9030
ARG_OF_PERICENTER = 90.0973
MEAN_ANOMALY   = 107.9876

EPHEMERIS_TYPE = 0
CLASSIFICATION_TYPE = U
NORAD_CAT_ID   = 67895
ELEMENT_SET_NO = 999
REV_AT_EPOCH   = 388
BSTAR          = -.65554E-2
MEAN_MOTION_DOT = -.1354625E-1
MEAN_MOTION_DDOT = 0

CCSDS_OMM_VERS = 2.0
CREATION_DATE  = 
ORIGINATOR     = 

OBJECT_NAME    = STARLINK-36877
OBJECT_ID      = 2026-035T
CENTER_NAME    = EARTH
REF_FRAME      = TEME
TIME_SYSTEM    = UTC
MEAN_ELEMENT_THEORY = SGP/SGP4

EPOCH          = 2026-03-10T12:00:01.999296
MEAN_MOTION    = 15.85382572
ECCENTRICITY   = .0001581
INCLINATION    = 97.2689
RA_OF_ASC_NODE = 1.8990
ARG_OF_PERICENTER = 94.2159
MEAN_ANOMALY   = 94.2461

EPHEMERIS_TYPE = 0
CLASSIFICATION_TYPE = U
NORAD_CAT_ID   = 67896
ELEMENT_SET_NO = 999
REV_AT_EPOCH   = 388
BSTAR          = -.6434E-2
MEAN_MOTION_DOT = -.1341798E-1
MEAN_MOTION_DDOT = 0

CCSDS_OMM_VERS = 2.0
CREATION_DATE  = 
ORIGINATOR     = 

OBJECT_NAME    = STARLINK-36870
OBJECT_ID      = 2026-035U
CENTER_NAME    = EARTH
REF_FRAME      = TEME
TIME_SYSTEM    = UTC
MEAN_ELEMENT_THEORY = SGP/SGP4

EPOCH          = 2026-03-10T12:00:01.999296
MEAN_MOTION    = 15.85115518
ECCENTRICITY   = .0001572
INCLINATION    = 97.2678
RA_OF_ASC_NODE = 1.9043
ARG_OF_PERICENTER = 104.5158
MEAN_ANOMALY   = 98.5138

EPHEMERIS_TYPE = 0
CLASSIFICATION_TYPE = U
NORAD_CAT_ID   = 67897
ELEMENT_SET_NO = 999
REV_AT_EPOCH   = 388
BSTAR          = -.66476E-2
MEAN_MOTION_DOT = -.1365211E-1
MEAN_MOTION_DDOT = 0

